CCSDS_OMM_VERS = 2.0
CREATION_DATE  = 
ORIGINATOR     = 

OBJECT_NAME    = KUIPER-00136
OBJECT_ID      = 2025-228R
CENTER_NAME    = EARTH
REF_FRAME      = TEME
TIME_SYSTEM    = UTC
MEAN_ELEMENT_THEORY = SGP/SGP4

EPOCH          = 2025-10-31T18:59:15.969984
MEAN_MOTION    = 15.34873691
ECCENTRICITY   = .000579
INCLINATION    = 51.8790
RA_OF_ASC_NODE = 222.6513
ARG_OF_PERICENTER = 198.4899
MEAN_ANOMALY   = 161.5877

EPHEMERIS_TYPE = 0
CLASSIFICATION_TYPE = U
NORAD_CAT_ID   = 65962
ELEMENT_SET_NO = 999
REV_AT_EPOCH   = 397
BSTAR          = .10874E-2
MEAN_MOTION_DOT = .37154E-3
MEAN_MOTION_DDOT = 0

CCSDS_OMM_VERS = 2.0
CREATION_DATE  = 
ORIGINATOR     = 

OBJECT_NAME    = KUIPER-00137
OBJECT_ID      = 2025-228S
CENTER_NAME    = EARTH
REF_FRAME      = TEME
TIME_SYSTEM    = UTC
MEAN_ELEMENT_THEORY = SGP/SGP4

EPOCH          = 2025-10-31T19:05:22.356960
MEAN_MOTION    = 15.34457329
ECCENTRICITY   = .0005005
INCLINATION    = 51.8792
RA_OF_ASC_NODE = 222.6808
ARG_OF_PERICENTER = 209.7035
MEAN_ANOMALY   = 150.3667

EPHEMERIS_TYPE = 0
CLASSIFICATION_TYPE = U
NORAD_CAT_ID   = 65963
ELEMENT_SET_NO = 999
REV_AT_EPOCH   = 397
BSTAR          = .12029E-2
MEAN_MOTION_DOT = .40609E-3
MEAN_MOTION_DDOT = 0

CCSDS_OMM_VERS = 2.0
CREATION_DATE  = 
ORIGINATOR     = 

OBJECT_NAME    = KUIPER-00138
OBJECT_ID      = 2025-228T
CENTER_NAME    = EARTH
REF_FRAME      = TEME
TIME_SYSTEM    = UTC
MEAN_ELEMENT_THEORY = SGP/SGP4

EPOCH          = 2025-10-31T19:08:16.479744
MEAN_MOTION    = 15.34315201
ECCENTRICITY   = .0005882
INCLINATION    = 51.8780
RA_OF_ASC_NODE = 222.6869
ARG_OF_PERICENTER = 221.8773
MEAN_ANOMALY   = 138.1763

EPHEMERIS_TYPE = 0
CLASSIFICATION_TYPE = U
NORAD_CAT_ID   = 65964
ELEMENT_SET_NO = 999
REV_AT_EPOCH   = 397
BSTAR          = .97619E-3
MEAN_MOTION_DOT = .32704E-3
MEAN_MOTION_DDOT = 0

CCSDS_OMM_VERS = 2.0
CREATION_DATE  = 
ORIGINATOR     = 

OBJECT_NAME    = KUIPER-00140
OBJECT_ID      = 2025-228U
CENTER_NAME    = EARTH
REF_FRAME      = TEME
TIME_SYSTEM    = UTC
MEAN_ELEMENT_THEORY = SGP/SGP4

EPOCH          = 2025-10-31T20:43:12.804096
MEAN_MOTION    = 15.34289753
ECCENTRICITY   = .0005696
INCLINATION    = 51.8794
RA_OF_ASC_NODE = 222.3830
ARG_OF_PERICENTER = 224.4647
MEAN_ANOMALY   = 135.5882

EPHEMERIS_TYPE = 0
CLASSIFICATION_TYPE = U
NORAD_CAT_ID   = 65965
ELEMENT_SET_NO = 999
REV_AT_EPOCH   = 398
BSTAR          = .11448E-2
MEAN_MOTION_DOT = .38415E-3
MEAN_MOTION_DDOT = 0

CCSDS_OMM_VERS = 2.0
CREATION_DATE  = 
ORIGINATOR     = 

OBJECT_NAME    = KUIPER-00141
OBJECT_ID      = 2025-228V
CENTER_NAME    = EARTH
REF_FRAME      = TEME
TIME_SYSTEM    = UTC
MEAN_ELEMENT_THEORY = SGP/SGP4

EPOCH          = 2025-10-31T19:02:23.199648
MEAN_MOTION    = 15.34691368
ECCENTRICITY   = .0005716
INCLINATION    = 51.8783
RA_OF_ASC_NODE = 222.6597
ARG_OF_PERICENTER = 200.9056
MEAN_ANOMALY   = 159.1696

EPHEMERIS_TYPE = 0
CLASSIFICATION_TYPE = U
NORAD_CAT_ID   = 65966
ELEMENT_SET_NO = 999
REV_AT_EPOCH   = 397
BSTAR          = .11859E-2
MEAN_MOTION_DOT = .40335E-3
MEAN_MOTION_DDOT = 0

CCSDS_OMM_VERS = 2.0
CREATION_DATE  = 
ORIGINATOR     = 

OBJECT_NAME    = KUIPER-00146
OBJECT_ID      = 2025-228W
CENTER_NAME    = EARTH
REF_FRAME      = TEME
TIME_SYSTEM    = UTC
MEAN_ELEMENT_THEORY = SGP/SGP4

EPOCH          = 2025-10-31T19:02:57.571296
MEAN_MOTION    = 15.34653248
ECCENTRICITY   = .0005838
INCLINATION    = 51.8795
RA_OF_ASC_NODE = 222.6688
ARG_OF_PERICENTER = 202.0813
MEAN_ANOMALY   = 157.9922

EPHEMERIS_TYPE = 0
CLASSIFICATION_TYPE = U
NORAD_CAT_ID   = 65967
ELEMENT_SET_NO = 999
REV_AT_EPOCH   = 397
BSTAR          = .10244E-2
MEAN_MOTION_DOT = .34723E-3
MEAN_MOTION_DDOT = 0

CCSDS_OMM_VERS = 2.0
CREATION_DATE  = 
ORIGINATOR     = 

OBJECT_NAME    = KUIPER-00149
OBJECT_ID      = 2025-228X
CENTER_NAME    = EARTH
REF_FRAME      = TEME
TIME_SYSTEM    = UTC
MEAN_ELEMENT_THEORY = SGP/SGP4

EPOCH          = 2025-10-31T18:59:53.401056
MEAN_MOTION    = 15.34831052
ECCENTRICITY   = .0006074
INCLINATION    = 51.8791
RA_OF_ASC_NODE = 222.6498
ARG_OF_PERICENTER = 198.0525
MEAN_ANOMALY   = 162.0246

EPHEMERIS_TYPE = 0
CLASSIFICATION_TYPE = U
NORAD_CAT_ID   = 65968
ELEMENT_SET_NO = 999
REV_AT_EPOCH   = 397
BSTAR          = .10248E-2
MEAN_MOTION_DOT = .34935E-3
MEAN_MOTION_DDOT = 0

CCSDS_OMM_VERS = 2.0
CREATION_DATE  = 
ORIGINATOR     = 

OBJECT_NAME    = KUIPER-00154
OBJECT_ID      = 2025-228Y
CENTER_NAME    = EARTH
REF_FRAME      = TEME
TIME_SYSTEM    = UTC
MEAN_ELEMENT_THEORY = SGP/SGP4

EPOCH          = 2025-10-31T18:58:44.408064
MEAN_MOTION    = 15.34898606
ECCENTRICITY   = .0006092
INCLINATION    = 51.8787
RA_OF_ASC_NODE = 222.6446
ARG_OF_PERICENTER = 196.6498
MEAN_ANOMALY   = 163.4289

EPHEMERIS_TYPE = 0
CLASSIFICATION_TYPE = U
NORAD_CAT_ID   = 65969
ELEMENT_SET_NO = 999
REV_AT_EPOCH   = 397
BSTAR          = .10502E-2
MEAN_MOTION_DOT = .35894E-3
MEAN_MOTION_DDOT = 0

CCSDS_OMM_VERS = 2.0
CREATION_DATE  = 
ORIGINATOR     = 

OBJECT_NAME    = KUIPER-00157
OBJECT_ID      = 2025-228Z
CENTER_NAME    = EARTH
REF_FRAME      = TEME
TIME_SYSTEM    = UTC
MEAN_ELEMENT_THEORY = SGP/SGP4

EPOCH          = 2025-10-31T19:06:52.640640
MEAN_MOTION    = 15.34451016
ECCENTRICITY   = .0005723
INCLINATION    = 51.8793
RA_OF_ASC_NODE = 222.6869
ARG_OF_PERICENTER = 215.4399
MEAN_ANOMALY   = 144.6207

EPHEMERIS_TYPE = 0
CLASSIFICATION_TYPE = U
NORAD_CAT_ID   = 65970
ELEMENT_SET_NO = 999
REV_AT_EPOCH   = 397
BSTAR          = .11325E-2
MEAN_MOTION_DOT = .38194E-3
MEAN_MOTION_DDOT = 0

CCSDS_OMM_VERS = 2.0
CREATION_DATE  = 
ORIGINATOR     = 

OBJECT_NAME    = STRIX-5
OBJECT_ID      = 2025-229A
CENTER_NAME    = EARTH
REF_FRAME      = TEME
TIME_SYSTEM    = UTC
MEAN_ELEMENT_THEORY = SGP/SGP4

EPOCH          = 2025-10-31T19:22:29.792928
MEAN_MOTION    = 15.01699092
ECCENTRICITY   = .0039611
INCLINATION    = 41.9260
RA_OF_ASC_NODE = 111.4608
ARG_OF_PERICENTER = 356.5547
MEAN_ANOMALY   = 3.5000

EPHEMERIS_TYPE = 0
CLASSIFICATION_TYPE = U
NORAD_CAT_ID   = 65971
ELEMENT_SET_NO = 999
REV_AT_EPOCH   = 260
BSTAR          = .4297E-3
MEAN_MOTION_DOT = .5586E-4
MEAN_MOTION_DDOT = 0

CCSDS_OMM_VERS = 2.0
CREATION_DATE  = 
ORIGINATOR     = 

OBJECT_NAME    = ELECTRON R/B
OBJECT_ID      = 2025-229B
CENTER_NAME    = EARTH
REF_FRAME      = TEME
TIME_SYSTEM    = UTC
MEAN_ELEMENT_THEORY = SGP/SGP4

EPOCH          = 2025-10-31T19:22:29.788608
MEAN_MOTION    = 15.01698482
ECCENTRICITY   = .0039599
INCLINATION    = 41.9266
RA_OF_ASC_NODE = 111.4605
ARG_OF_PERICENTER = 356.4344
MEAN_ANOMALY   = 3.6194

EPHEMERIS_TYPE = 0
CLASSIFICATION_TYPE = U
NORAD_CAT_ID   = 65972
ELEMENT_SET_NO = 999
REV_AT_EPOCH   = 258
BSTAR          = .41868E-3
MEAN_MOTION_DOT = .5438E-4
MEAN_MOTION_DDOT = 0

CCSDS_OMM_VERS = 2.0
CREATION_DATE  = 
ORIGINATOR     = 

OBJECT_NAME    = ELECTRON KICK STAGE R/B
OBJECT_ID      = 2025-229C
CENTER_NAME    = EARTH
REF_FRAME      = TEME
TIME_SYSTEM    = UTC
MEAN_ELEMENT_THEORY = SGP/SGP4

EPOCH          = 2025-10-31T19:08:45.034944
MEAN_MOTION    = 15.02580495
ECCENTRICITY   = .0040693
INCLINATION    = 41.9822
RA_OF_ASC_NODE = 111.4861
ARG_OF_PERICENTER = 356.5353
MEAN_ANOMALY   = 3.5187

EPHEMERIS_TYPE = 0
CLASSIFICATION_TYPE = U
NORAD_CAT_ID   = 65973
ELEMENT_SET_NO = 999
REV_AT_EPOCH   = 257
BSTAR          = .65361E-3
MEAN_MOTION_DOT = .8818E-4
MEAN_MOTION_DDOT = 0

