KUIPER-00136            
1 65962U 25228R   25304.79115706  .00037154  00000+0  10874-2 0  9998
2 65962  51.8790 222.6513 0005790 198.4899 161.5877 15.34873691  3971
KUIPER-00137            
1 65963U 25228S   25304.79539765  .00040609  00000+0  12029-2 0  9997
2 65963  51.8792 222.6808 0005005 209.7035 150.3667 15.34457329  3977
KUIPER-00138            
1 65964U 25228T   25304.79741296  .00032704  00000+0  97619-3 0  9998
2 65964  51.8780 222.6869 0005882 221.8773 138.1763 15.34315201  3972
KUIPER-00140            
1 65965U 25228U   25304.86334264  .00038415  00000+0  11448-2 0  9990
2 65965  51.8794 222.3830 0005696 224.4647 135.5882 15.34289753  3981
KUIPER-00141            
1 65966U 25228V   25304.79332407  .00040335  00000+0  11859-2 0  9990
2 65966  51.8783 222.6597 0005716 200.9056 159.1696 15.34691368  3972
KUIPER-00146            
1 65967U 25228W   25304.79372189  .00034723  00000+0  10244-2 0  9993
2 65967  51.8795 222.6688 0005838 202.0813 157.9922 15.34653248  3979
KUIPER-00149            
1 65968U 25228X   25304.79159029  .00034935  00000+0  10248-2 0  9999
2 65968  51.8791 222.6498 0006074 198.0525 162.0246 15.34831052  3979
KUIPER-00154            
1 65969U 25228Y   25304.79079176  .00035894  00000+0  10502-2 0  9992
2 65969  51.8787 222.6446 0006092 196.6498 163.4289 15.34898606  3971
KUIPER-00157            
1 65970U 25228Z   25304.79644260  .00038194  00000+0  11325-2 0  9996
2 65970  51.8793 222.6869 0005723 215.4399 144.6207 15.34451016  3970
STRIX-5                 
1 65971U 25229A   25304.80728927  .00005586  00000+0  42970-3 0  9993
2 65971  41.9260 111.4608 0039611 356.5547   3.5000 15.01699092  2606
ELECTRON R/B            
1 65972U 25229B   25304.80728922  .00005438  00000+0  41868-3 0  9990
2 65972  41.9266 111.4605 0039599 356.4344   3.6194 15.01698482  2583
ELECTRON KICK STAGE R/B 
1 65973U 25229C   25304.79774346  .00008818  00000+0  65361-3 0  9999
2 65973  41.9822 111.4861 0040693 356.5353   3.5187 15.02580495  2579
